NORAD_CAT_ID,OBJECT_NAME,OBJECT_TYPE,EPOCH,MEAN_MOTION,ECCENTRICITY,INCLINATION,RA_OF_ASC_NODE,ARG_OF_PERICENTER,MEAN_ANOMALY,BSTAR,MEAN_MOTION_DOT,MEAN_MOTION_DDOT,TLE_LINE0,TLE_LINE1,TLE_LINE2,SEMIMAJOR_AXIS,PERIOD,APOGEE,PERIGEE,DECAYED
52268.0,STARLINK-3746,PAYLOAD,2023-12-25 11:08:51,15.08854235,0.000169,53.2161,123.8389,84.1895,275.929,-5.3676e-05,-1.143e-05,0.0,0 STARLINK-3746,1 52268U 22041H   23359.46448866 -.00001143  00000-0 -53676-4 0  9992,2 52268  53.2161 123.8389 0001690  84.1895 275.9290 15.08854235 94028,6917.837,95.437,540.871,538.533,0.0
52268.0,STARLINK-3746,PAYLOAD,2023-12-25 14:19:38,15.08853131,0.0001609,53.217,123.2452,80.6018,279.5156,-5.2302e-05,-1.121e-05,0.0,0 STARLINK-3746,1 52268U 22041H   23359.59696796 -.00001121  00000-0 -52302-4 0  9994,2 52268  53.2170 123.2452 0001609  80.6018 279.5156 15.08853131 92822,6917.84,95.437,540.818,538.592,0.0
52268.0,STARLINK-3746,PAYLOAD,2023-12-25 15:55:01,15.08854353,0.0001571,53.2169,122.9475,80.9408,279.1762,-5.0613e-05,-1.094e-05,0.0,0 STARLINK-3746,1 52268U 22041H   23359.66320610 -.00001094  00000-0 -50613-4 0  9993,2 52268  53.2169 122.9475 0001571  80.9408 279.1762 15.08854353 92832,6917.837,95.437,540.788,538.615,0.0
52268.0,STARLINK-3746,PAYLOAD,2023-12-26 10:59:38,15.08816359,0.0001332,53.216,119.3796,127.5065,232.6048,0.00031204,4.679e-05,0.0,0 STARLINK-3746,1 52268U 22041H   23360.45808990  .00004679  00000-0  31204-3 0  9998,2 52268  53.2160 119.3796 0001332 127.5065 232.6048 15.08816359 94175,6917.953,95.439,540.739,538.896,0.0
52268.0,STARLINK-3746,PAYLOAD,2023-12-26 14:10:25,15.08833514,0.0001207,53.2163,118.785,106.3438,253.7687,0.00010541,1.39e-05,0.0,0 STARLINK-3746,1 52268U 22041H   23360.59056843  .00001390  00000-0  10541-3 0  9993,2 52268  53.2163 118.7850 0001207 106.3438 253.7687 15.08833514 92973,6917.9,95.438,540.6,538.93,0.0
52268.0,STARLINK-3746,PAYLOAD,2023-12-26 15:45:48,15.08846866,0.0001524,53.2169,118.4879,66.4586,293.6566,-1.3526e-05,-5.03e-06,0.0,0 STARLINK-3746,1 52268U 22041H   23360.65680620 -.00000503  00000-0 -13526-4 0  9990,2 52268  53.2169 118.4879 0001524  66.4586 293.6566 15.08846866 94200,6917.859,95.437,540.779,538.67,0.0
52268.0,STARLINK-3746,PAYLOAD,2023-12-27 10:50:25,15.08840547,0.000142,53.2165,114.921,72.687,287.4278,4.4321e-05,4.18e-06,0.0,0 STARLINK-3746,1 52268U 22041H   23361.45168798  .00000418  00000-0  44321-4 0  9996,2 52268  53.2165 114.9210 0001420  72.6870 287.4278 15.08840547 94320,6917.879,95.438,540.726,538.761,0.0
52268.0,STARLINK-3746,PAYLOAD,2023-12-27 14:01:11,15.08843654,0.0001602,53.2161,114.326,64.7124,295.4034,8.3254e-05,1.037e-05,0.0,0 STARLINK-3746,1 52268U 22041H   23361.58416585  .00001037  00000-0  83254-4 0  9996,2 52268  53.2161 114.3260 0001602  64.7124 295.4034 15.08843654 93129,6917.869,95.437,540.842,538.626,0.0
52268.0,STARLINK-3746,PAYLOAD,2023-12-28 12:16:36,15.08836928,0.0001596,53.2159,110.1633,63.6486,296.467,9.8095e-05,1.273e-05,0.0,0 STARLINK-3746,1 52268U 22041H   23362.51152991  .00001273  00000-0  98095-4 0  9999,2 52268  53.2159 110.1633 0001596  63.6486 296.4670 15.08836928 94488,6917.89,95.438,540.859,538.651,0.0
52268.0,STARLINK-3746,PAYLOAD,2023-12-28 13:51:57,15.08864187,0.000141,53.2167,109.8648,78.2162,281.8988,0.00026417,3.922e-05,0.0,0 STARLINK-3746,1 52268U 22041H   23362.57774707  .00003922  00000-0  26417-3 0  9991,2 52268  53.2167 109.8648 0001410  78.2162 281.8988 15.08864187 93270,6917.806,95.436,540.647,538.696,0.0
52268.0,STARLINK-3746,PAYLOAD,2023-12-29 12:07:23,15.08830317,0.0001977,53.2154,105.7038,48.3423,311.7738,-4.6569e-05,-1.029e-05,0.0,0 STARLINK-3746,1 52268U 22041H   23363.50513824 -.00001029  00000-0 -46569-4 0  9995,2 52268  53.2154 105.7038 0001977  48.3423 311.7738 15.08830317 94635,6917.91,95.438,541.143,538.407,0.0
52268.0,STARLINK-3746,PAYLOAD,2023-12-29 13:42:46,15.08831086,0.0001863,53.2155,105.4061,57.8378,302.2795,-5.3979e-05,-1.147e-05,0.0,0 STARLINK-3746,1 52268U 22041H   23363.57137722 -.00001147  00000-0 -53979-4 0  9995,2 52268  53.2155 105.4061 0001863  57.8378 302.2795 15.08831086 93425,6917.908,95.438,541.061,538.484,0.0
52268.0,STARLINK-3746,PAYLOAD,2023-12-30 11:58:10,15.08844316,0.0001486,53.217,101.2439,79.8741,280.2419,-4.2521e-06,-3.56e-06,0.0,0 STARLINK-3746,1 52268U 22041H   23364.49872849 -.00000356  00000-0 -42521-5 0  9996,2 52268  53.2170 101.2439 0001486  79.8741 280.2419 15.08844316 94782,6917.867,95.437,540.76,538.704,0.0
52268.0,STARLINK-3746,PAYLOAD,2023-12-30 13:33:33,15.08845126,0.00015,53.217,100.9465,74.3082,285.8076,2.1723e-05,5.8e-07,0.0,0 STARLINK-3746,1 52268U 22041H   23364.56496703  .00000058  00000-0  21723-4 0  9992,2 52268  53.2170 100.9465 0001500  74.3082 285.8076 15.08845126 93578,6917.865,95.437,540.767,538.692,0.0
52268.0,STARLINK-3746,PAYLOAD,2023-12-31 11:48:57,15.08829938,0.0001579,53.2165,96.7808,74.9493,285.1674,8.6709e-05,1.092e-05,0.0,0 STARLINK-3746,1 52268U 22041H   23365.49233635  .00001092  00000-0  86709-4 0  9992,2 52268  53.2165  96.7808 0001579  74.9493 285.1674 15.08829938 94934,6917.911,95.438,540.868,538.684,0.0
52268.0,STARLINK-3746,PAYLOAD,2024-01-01 11:39:44,15.08841741,0.0001531,53.2167,92.3193,83.059,277.0576,1.6195e-05,-3e-07,0.0,0 STARLINK-3746,1 52268U 22041H   24001.48593407 -.00000030  00000-0  16195-4 0  9999,2 52268  53.2167  92.3193 0001531  83.0590 277.0576 15.08841741 95086,6917.875,95.437,540.799,538.681,0.0
52268.0,STARLINK-3746,PAYLOAD,2024-01-01 13:15:07,15.08844855,0.0001862,53.217,92.0223,88.5975,271.523,4.1353e-05,3.7e-06,0.0,0 STARLINK-3746,1 52268U 22041H   24001.55217162  .00000370  00000-0  41353-4 0  9998,2 52268  53.2170  92.0223 0001862  88.5975 271.5230 15.08844855 93875,6917.866,95.437,541.019,538.442,0.0
52268.0,STARLINK-3746,PAYLOAD,2024-01-01 14:50:30,15.08850278,0.0001682,53.2169,91.7243,87.4757,272.6428,9.7743e-06,-1.32e-06,0.0,0 STARLINK-3746,1 52268U 22041H   24001.61840850 -.00000132  00000-0  97743-5 0  9993,2 52268  53.2169  91.7243 0001682  87.4757 272.6428 15.08850278 95102,6917.849,95.437,540.878,538.55,0.0
52268.0,STARLINK-3746,PAYLOAD,2024-01-02 11:30:31,15.08837786,0.0001449,53.2166,87.8588,94.7103,265.4054,4.717e-05,4.63e-06,0.0,0 STARLINK-3746,1 52268U 22041H   24002.47953591  .00000463  00000-0  47170-4 0  9999,2 52268  53.2166  87.8588 0001449  94.7103 265.4054 15.08837786 95232,6917.887,95.438,540.755,538.75,0.0
52268.0,STARLINK-3746,PAYLOAD,2024-01-02 13:05:54,15.08840388,0.0001491,53.2171,87.5612,85.4544,274.6618,6.8559e-05,8.03e-06,0.0,0 STARLINK-3746,1 52268U 22041H   24002.54577447  .00000803  00000-0  68559-4 0  9991,2 52268  53.2171  87.5612 0001491  85.4544 274.6618 15.08840388 94022,6917.879,95.438,540.776,538.713,0.0
52268.0,STARLINK-3746,PAYLOAD,2024-01-03 12:56:42,15.08841568,0.0001555,53.2174,83.1012,75.193,284.9235,-4.112e-06,-3.53e-06,0.0,0 STARLINK-3746,1 52268U 22041H   24003.53937877 -.00000353  00000-0 -41120-5 0  9996,2 52268  53.2174  83.1012 0001555  75.1930 284.9235 15.08841568 94173,6917.876,95.437,540.816,538.665,0.0
52268.0,STARLINK-3746,PAYLOAD,2024-01-04 11:12:05,15.08841849,0.0001359,53.2171,78.9394,78.7309,281.3836,7.3698e-05,8.85e-06,0.0,0 STARLINK-3746,1 52268U 22041H   24004.46673576  .00000885  00000-0  73698-4 0  9994,2 52268  53.2171  78.9394 0001359  78.7309 281.3836 15.08841849 94312,6917.875,95.437,540.68,538.8,0.0
52268.0,STARLINK-3746,PAYLOAD,2024-01-05 11:02:53,15.08836788,0.0001362,53.2166,74.4791,83.7979,276.3169,4.2498e-05,3.88e-06,0.0,0 STARLINK-3746,1 52268U 22041H   24005.46034102  .00000388  00000-0  42498-4 0  9993,2 52268  53.2166  74.4791 0001362  83.7979 276.3169 15.08836788 95681,6917.89,95.438,540.697,538.813,0.0
52268.0,STARLINK-3746,PAYLOAD,2024-01-05 14:13:39,15.08837469,0.000134,53.2166,73.8835,91.0403,269.0743,8.3698e-05,1.044e-05,0.0,0 STARLINK-3746,1 52268U 22041H   24005.59281902  .00001044  00000-0  83698-4 0  9996,2 52268  53.2166  73.8835 0001340  91.0403 269.0743 15.08837469 94484,6917.888,95.438,540.68,538.826,0.0
52268.0,STARLINK-3746,PAYLOAD,2024-01-06 10:53:39,15.08852463,0.0001745,53.2166,70.0159,102.2802,257.8386,-9.024e-05,-1.725e-05,0.0,0 STARLINK-3746,1 52268U 22041H   24006.45393512 -.00001725  00000-0 -90240-4 0  9992,2 52268  53.2166  70.0159 0001745 102.2802 257.8386 15.08852463 95838,6917.842,95.437,540.914,538.5,0.0
52268.0,STARLINK-3746,PAYLOAD,2024-01-06 14:04:26,15.08857944,0.0001814,53.2164,69.421,101.6964,258.4232,-0.00013922,-2.504e-05,0.0,0 STARLINK-3746,1 52268U 22041H   24006.58641221 -.00002504  00000-0 -13922-3 0  9996,2 52268  53.2164  69.4210 0001814 101.6964 258.4232 15.08857944 94638,6917.826,95.436,540.945,538.436,0.0
52268.0,STARLINK-3746,PAYLOAD,2024-01-07 04:22:55,15.08835234,0.0001557,53.2171,66.7434,98.3682,261.7487,9.7566e-06,-1.33e-06,0.0,0 STARLINK-3746,1 52268U 22041H   24007.18258285 -.00000133  00000-0  97566-5 0  9990,2 52268  53.2171  66.7434 0001557  98.3682 261.7487 15.08835234 95949,6917.895,95.438,540.837,538.683,0.0
52268.0,STARLINK-3746,PAYLOAD,2024-01-07 09:09:04,15.08836808,0.0001554,53.2173,65.8514,100.8887,259.228,1.4992e-05,-4.9e-07,0.0,0 STARLINK-3746,1 52268U 22041H   24007.38130211 -.00000049  00000-0  14992-4 0  9997,2 52268  53.2173  65.8514 0001554 100.8887 259.2280 15.08836808 94752,6917.89,95.438,540.83,538.68,0.0
52268.0,STARLINK-3746,PAYLOAD,2024-01-08 04:13:43,15.08756549,0.0001937,53.2176,62.2819,107.3818,252.7386,0.0010505,0.00016432,0.0,0 STARLINK-3746,1 52268U 22041H   24008.17619791  .00016432  00000-0  10505-2 0  9996,2 52268  53.2176  62.2819 0001937 107.3818 252.7386 15.08756549 96092,6918.135,95.443,541.341,538.66,0.0
52268.0,STARLINK-3746,PAYLOAD,2024-01-08 10:35:14,15.08834607,0.000147,53.2167,61.0939,90.1517,269.9643,0.00013057,1.79e-05,0.0,0 STARLINK-3746,1 52268U 22041H   24008.44114223  .00001790  00000-0  13057-3 0  9993,2 52268  53.2167  61.0939 0001470  90.1517 269.9643 15.08834607 96132,6917.897,95.438,540.779,538.745,0.0
